start=new Date('2023-03-19T00:00:00.000Z').valueOf();
sats=[{"MEAN_ANOMALY":"251.2962","TLE_LINE1":"1 47651U 21012AH  23077.83343119  .00016284  00000-0  11093-2 0  9997","COUNTRY_CODE":"US","GP_ID":"228402497","CENTER_NAME":"EARTH","SEMIMAJOR_AXIS":"6925.324","MEAN_ELEMENT_THEORY":"SGP4","OBJECT_ID":"2021-012AH","SITE":"AFETR","OBJECT_TYPE":"PAYLOAD","ECCENTRICITY":"0.00010540","MEAN_MOTION":"15.06408047","MEAN_MOTION_DDOT":"0.0000000000000","DECAY_DATE":null,"INCLINATION":"53.0522","CLASSIFICATION_TYPE":"U","EPOCH":"2023-03-18T20:00:08.454816","FILE":"3864479","RA_OF_ASC_NODE":"270.7503","ARG_OF_PERICENTER":"108.8142","TLE_LINE2":"2 47651  53.0522 270.7503 0001054 108.8142 251.2962 15.06408047116178","NORAD_CAT_ID":"47651","REV_AT_EPOCH":"11617","TIME_SYSTEM":"UTC","PERIAPSIS":"546.459","MEAN_MOTION_DOT":"0.00016284","OBJECT_NAME":"STARLINK-2035","APOAPSIS":"547.919","PERIOD":"95.592","REF_FRAME":"TEME","ELEMENT_SET_NO":"999","BSTAR":"0.00110930000000","EPHEMERIS_TYPE":"0","LAUNCH_DATE":"2021-02-16","RCS_SIZE":"LARGE"},{"OBJECT_ID":"2021-012AJ","OBJECT_TYPE":"PAYLOAD","SITE":"AFETR","ECCENTRICITY":"0.00009200","MEAN_ANOMALY":"295.3458","TLE_LINE1":"1 47652U 21012AJ  23077.92189560  .00017937  00000-0  12197-2 0  9998","SEMIMAJOR_AXIS":"6925.319","CENTER_NAME":"EARTH","GP_ID":"228402752","COUNTRY_CODE":"US","MEAN_ELEMENT_THEORY":"SGP4","CLASSIFICATION_TYPE":"U","FILE":"3864479","EPOCH":"2023-03-18T22:07:31.779840","RA_OF_ASC_NODE":"270.3096","ARG_OF_PERICENTER":"64.7626","MEAN_MOTION":"15.06409800","DECAY_DATE":null,"MEAN_MOTION_DDOT":"0.0000000000000","INCLINATION":"53.0520","TIME_SYSTEM":"UTC","PERIAPSIS":"546.546","APOAPSIS":"547.821","OBJECT_NAME":"STARLINK-2036","MEAN_MOTION_DOT":"0.00017937","TLE_LINE2":"2 47652  53.0520 270.3096 0000920  64.7626 295.3458 15.06409800116186","REV_AT_EPOCH":"11618","NORAD_CAT_ID":"47652","LAUNCH_DATE":"2021-02-16","RCS_SIZE":"LARGE","REF_FRAME":"TEME","PERIOD":"95.592","BSTAR":"0.00121970000000","EPHEMERIS_TYPE":"0","ELEMENT_SET_NO":"999"},{"TLE_LINE2":"2 47653  53.0512 250.6342 0000807 105.3789 254.7290 15.06427414115935","REV_AT_EPOCH":"11593","NORAD_CAT_ID":"47653","APOAPSIS":"547.688","OBJECT_NAME":"STARLINK-2037","MEAN_MOTION_DOT":"0.00019257","TIME_SYSTEM":"UTC","PERIAPSIS":"546.571","REF_FRAME":"TEME","PERIOD":"95.590","EPHEMERIS_TYPE":"0","BSTAR":"0.00130720000000","ELEMENT_SET_NO":"999","RCS_SIZE":"LARGE","LAUNCH_DATE":"2021-02-16","MEAN_ELEMENT_THEORY":"SGP4","TLE_LINE1":"1 47653U 21012AK  23077.85001101  .00019257  00000-0  13072-2 0  9995","MEAN_ANOMALY":"254.7290","SEMIMAJOR_AXIS":"6925.265","COUNTRY_CODE":"US","GP_ID":"228376413","CENTER_NAME":"EARTH","ECCENTRICITY":"0.00008070","OBJECT_ID":"2021-012AK","OBJECT_TYPE":"PAYLOAD","SITE":"AFETR","DECAY_DATE":null,"MEAN_MOTION_DDOT":"0.0000000000000","INCLINATION":"53.0512","MEAN_MOTION":"15.06427414","RA_OF_ASC_NODE":"250.6342","ARG_OF_PERICENTER":"105.3789","CLASSIFICATION_TYPE":"U","FILE":"3864268","EPOCH":"2023-03-18T20:24:00.951264"},{"MEAN_MOTION":"15.06406232","DECAY_DATE":null,"MEAN_MOTION_DDOT":"0.0000000000000","INCLINATION":"53.0514","CLASSIFICATION_TYPE":"U","EPOCH":"2023-03-18T19:01:45.246720","FILE":"3864479","RA_OF_ASC_NODE":"270.8837","ARG_OF_PERICENTER":"76.4661","MEAN_ANOMALY":"283.6421","TLE_LINE1":"1 47654U 21012AL  23077.79288480  .00015651  00000-0  10671-2 0  9992","SEMIMAJOR_AXIS":"6925.329","GP_ID":"228402254","CENTER_NAME":"EARTH","COUNTRY_CODE":"US","MEAN_ELEMENT_THEORY":"SGP4","OBJECT_ID":"2021-012AL","OBJECT_TYPE":"PAYLOAD","SITE":"AFETR","ECCENTRICITY":"0.00008350","REF_FRAME":"TEME","PERIOD":"95.592","BSTAR":"0.00106710000000","EPHEMERIS_TYPE":"0","ELEMENT_SET_NO":"999","LAUNCH_DATE":"2021-02-16","RCS_SIZE":"LARGE","TLE_LINE2":"2 47654  53.0514 270.8837 0000835  76.4661 283.6421 15.06406232116167","REV_AT_EPOCH":"11616","NORAD_CAT_ID":"47654","TIME_SYSTEM":"UTC","PERIAPSIS":"546.616","OBJECT_NAME":"STARLINK-2038","APOAPSIS":"547.773","MEAN_MOTION_DOT":"0.00015651"},{"ECCENTRICITY":"0.00007990","OBJECT_ID":"2021-012AM","SITE":"AFETR","OBJECT_TYPE":"PAYLOAD","MEAN_ELEMENT_THEORY":"SGP4","MEAN_ANOMALY":"253.8268","TLE_LINE1":"1 47655U 21012AM  23077.91820512  .00012820  00000-0  87767-3 0  9991","GP_ID":"228402998","CENTER_NAME":"EARTH","COUNTRY_CODE":"US","SEMIMAJOR_AXIS":"6925.312","RA_OF_ASC_NODE":"270.3263","ARG_OF_PERICENTER":"106.2808","CLASSIFICATION_TYPE":"U","FILE":"3864479","EPOCH":"2023-03-18T22:02:12.922368","DECAY_DATE":null,"MEAN_MOTION_DDOT":"0.0000000000000","INCLINATION":"53.0506","MEAN_MOTION":"15.06412027","MEAN_MOTION_DOT":"0.00012820","OBJECT_NAME":"STARLINK-2039","APOAPSIS":"547.730","TIME_SYSTEM":"UTC","PERIAPSIS":"546.623","TLE_LINE2":"2 47655  53.0506 270.3263 0000799 106.2808 253.8268 15.06412027116180","NORAD_CAT_ID":"47655","REV_AT_EPOCH":"11618","RCS_SIZE":"LARGE","LAUNCH_DATE":"2021-02-16","PERIOD":"95.591","REF_FRAME":"TEME","ELEMENT_SET_NO":"999","EPHEMERIS_TYPE":"0","BSTAR":"0.00087767000000"},{"REV_AT_EPOCH":"11645","NORAD_CAT_ID":"47656","TLE_LINE2":"2 47656  53.0509 250.5490 0000837 105.0362 255.0719 15.06415374116454","APOAPSIS":"547.746","OBJECT_NAME":"STARLINK-2040","MEAN_MOTION_DOT":"0.00013767","PERIAPSIS":"546.587","TIME_SYSTEM":"UTC","BSTAR":"0.00094090000000","EPHEMERIS_TYPE":"0","ELEMENT_SET_NO":"999","REF_FRAME":"TEME","PERIOD":"95.591","RCS_SIZE":"LARGE","LAUNCH_DATE":"2021-02-16","MEAN_ELEMENT_THEORY":"SGP4","SEMIMAJOR_AXIS":"6925.301","COUNTRY_CODE":"US","GP_ID":"228403253","CENTER_NAME":"EARTH","TLE_LINE1":"1 47656U 21012AN  23077.86843326  .00013767  00000-0  94090-3 0  9992","MEAN_ANOMALY":"255.0719","ECCENTRICITY":"0.00008370","OBJECT_TYPE":"PAYLOAD","SITE":"AFETR","OBJECT_ID":"2021-012AN","INCLINATION":"53.0509","MEAN_MOTION_DDOT":"0.0000000000000","DECAY_DATE":null,"MEAN_MOTION":"15.06415374","ARG_OF_PERICENTER":"105.0362","RA_OF_ASC_NODE":"250.5490","EPOCH":"2023-03-18T20:50:32.633664","FILE":"3864479","CLASSIFICATION_TYPE":"U"},{"RCS_SIZE":"LARGE","LAUNCH_DATE":"2021-02-16","ELEMENT_SET_NO":"999","BSTAR":"0.00110510000000","EPHEMERIS_TYPE":"0","PERIOD":"95.590","REF_FRAME":"TEME","MEAN_MOTION_DOT":"0.00016232","OBJECT_NAME":"STARLINK-2041","APOAPSIS":"548.013","PERIAPSIS":"546.215","TIME_SYSTEM":"UTC","NORAD_CAT_ID":"47657","REV_AT_EPOCH":"11565","TLE_LINE2":"2 47657  53.0524 270.8233 0001298  76.6889 283.4244 15.06432557115652","ARG_OF_PERICENTER":"76.6889","RA_OF_ASC_NODE":"270.8233","EPOCH":"2023-03-18T19:22:57.928224","FILE":"3864327","CLASSIFICATION_TYPE":"U","INCLINATION":"53.0524","DECAY_DATE":null,"MEAN_MOTION_DDOT":"0.0000000000000","MEAN_MOTION":"15.06432557","ECCENTRICITY":"0.00012980","SITE":"AFETR","OBJECT_TYPE":"PAYLOAD","OBJECT_ID":"2021-012AP","MEAN_ELEMENT_THEORY":"SGP4","CENTER_NAME":"EARTH","GP_ID":"228376932","COUNTRY_CODE":"US","SEMIMAJOR_AXIS":"6925.249","MEAN_ANOMALY":"283.4244","TLE_LINE1":"1 47657U 21012AP  23077.80761491  .00016232  00000-0  11051-2 0  9994"},{"SEMIMAJOR_AXIS":"6925.295","COUNTRY_CODE":"US","GP_ID":"228401754","CENTER_NAME":"EARTH","TLE_LINE1":"1 47658U 21012AQ  23077.80026546  .00022354  00000-0  15141-2 0  9996","MEAN_ANOMALY":"283.6398","MEAN_ELEMENT_THEORY":"SGP4","OBJECT_TYPE":"PAYLOAD","SITE":"AFETR","OBJECT_ID":"2021-012AQ","ECCENTRICITY":"0.00012880","MEAN_MOTION":"15.06417491","INCLINATION":"53.0515","DECAY_DATE":null,"MEAN_MOTION_DDOT":"0.0000000000000","EPOCH":"2023-03-18T19:12:22.935744","FILE":"3864479","CLASSIFICATION_TYPE":"U","ARG_OF_PERICENTER":"76.4734","RA_OF_ASC_NODE":"270.8582","REV_AT_EPOCH":"11618","NORAD_CAT_ID":"47658","TLE_LINE2":"2 47658  53.0515 270.8582 0001288  76.4734 283.6398 15.06417491116187","PERIAPSIS":"546.268","TIME_SYSTEM":"UTC","APOAPSIS":"548.052","OBJECT_NAME":"STARLINK-2042","MEAN_MOTION_DOT":"0.00022354","EPHEMERIS_TYPE":"0","BSTAR":"0.00151410000000","ELEMENT_SET_NO":"999","REF_FRAME":"TEME","PERIOD":"95.591","LAUNCH_DATE":"2021-02-16","RCS_SIZE":"LARGE"},{"INCLINATION":"53.0531","DECAY_DATE":null,"MEAN_MOTION_DDOT":"0.0000000000000","MEAN_MOTION":"15.06424678","ARG_OF_PERICENTER":"92.7824","RA_OF_ASC_NODE":"152.2287","FILE":"3864479","EPOCH":"2023-03-18T11:51:51.759648","CLASSIFICATION_TYPE":"U","MEAN_ELEMENT_THEORY":"SGP4","SEMIMAJOR_AXIS":"6925.273","CENTER_NAME":"EARTH","GP_ID":"228402498","COUNTRY_CODE":"US","MEAN_ANOMALY":"267.3315","TLE_LINE1":"1 47659U 21012AR  23077.49434907  .00019142  00000-0  12996-2 0  9992","ECCENTRICITY":"0.00013140","OBJECT_TYPE":"PAYLOAD","SITE":"AFETR","OBJECT_ID":"2021-012AR","EPHEMERIS_TYPE":"0","BSTAR":"0.00129960000000","ELEMENT_SET_NO":"999","REF_FRAME":"TEME","PERIOD":"95.591","RCS_SIZE":"LARGE","LAUNCH_DATE":"2021-02-16","NORAD_CAT_ID":"47659","REV_AT_EPOCH":"11777","TLE_LINE2":"2 47659  53.0531 152.2287 0001314  92.7824 267.3315 15.06424678117771","APOAPSIS":"548.048","OBJECT_NAME":"STARLINK-2043","MEAN_MOTION_DOT":"0.00019142","PERIAPSIS":"546.228","TIME_SYSTEM":"UTC"},{"SEMIMAJOR_AXIS":"6925.219","GP_ID":"228402753","CENTER_NAME":"EARTH","COUNTRY_CODE":"US","MEAN_ANOMALY":"267.6470","TLE_LINE1":"1 47660U 21012AS  23077.91187269  .00033739  00000-0  22705-2 0  9994","MEAN_ELEMENT_THEORY":"SGP4","OBJECT_TYPE":"PAYLOAD","SITE":"AFETR","OBJECT_ID":"2021-012AS","ECCENTRICITY":"0.00015130","MEAN_MOTION":"15.06442426","INCLINATION":"53.0529","MEAN_MOTION_DDOT":"0.0000000000000","DECAY_DATE":null,"EPOCH":"2023-03-18T21:53:05.800416","FILE":"3864479","CLASSIFICATION_TYPE":"U","ARG_OF_PERICENTER":"92.4692","RA_OF_ASC_NODE":"140.9758","REV_AT_EPOCH":"11797","NORAD_CAT_ID":"47660","TLE_LINE2":"2 47660  53.0529 140.9758 0001513  92.4692 267.6470 15.06442426117976","PERIAPSIS":"546.036","TIME_SYSTEM":"UTC","OBJECT_NAME":"STARLINK-2044","APOAPSIS":"548.131","MEAN_MOTION_DOT":"0.00033739","BSTAR":"0.00227050000000","EPHEMERIS_TYPE":"0","ELEMENT_SET_NO":"999","REF_FRAME":"TEME","PERIOD":"95.589","LAUNCH_DATE":"2021-02-16","RCS_SIZE":"LARGE"}];
